0 FENGYUN 1C DEB
1 29939U 99025JM  13281.53799199  .00000145  00000-0  10243-3 0   684
2 29939 098.9819 290.8361 0067885 135.3384 032.7473 14.11310230347138
0 FENGYUN 1C DEB
1 29939U 99025JM  13283.85514456  .00000154  00000-0  10724-3 0   697
2 29939 098.9816 293.1544 0067946 128.9056 285.4558 14.11311165347461
0 FENGYUN 1C DEB
1 29939U 99025JM  13285.98326610 -.00000048  00000-0 -21502-5 0   700
2 29939 098.9811 295.2835 0067963 123.0173 297.7340 14.11313554347769
0 FENGYUN 1C DEB
1 29939U 99025JM  13288.03970528 -.00000080  00000-0 -19363-4 0   710
2 29939 098.9809 297.3407 0067977 117.3019 305.8617 14.11314252348051
0 FENGYUN 1C DEB
1 29939U 99025JM  13290.53869203  .00000112  00000-0  84642-4 0   722
2 29939 098.9810 299.8404 0068020 110.3551 042.4549 14.11312693348405
0 FENGYUN 1C DEB
1 29939U 99025JM  13292.58642758  .00000180  00000-0  12150-3 0   733
2 29939 098.9812 301.8886 0068021 104.6785 006.3519 14.11312608348694
0 FENGYUN 1C DEB
1 29939U 99025JM  13294.85708456  .00000018  00000-0  33604-4 0   742
2 29939 098.9813 304.1599 0068000 098.3806 022.8369 14.11314763349019
